"CCSDS_OMM_VERS","COMMENT","CREATION_DATE","ORIGINATOR","OBJECT_NAME","OBJECT_ID","CENTER_NAME","REF_FRAME","TIME_SYSTEM","MEAN_ELEMENT_THEORY","EPOCH","MEAN_MOTION","ECCENTRICITY","INCLINATION","RA_OF_ASC_NODE","ARG_OF_PERICENTER","MEAN_ANOMALY","EPHEMERIS_TYPE","CLASSIFICATION_TYPE","NORAD_CAT_ID","ELEMENT_SET_NO","REV_AT_EPOCH","BSTAR","MEAN_MOTION_DOT","MEAN_MOTION_DDOT","SEMIMAJOR_AXIS","PERIOD","APOAPSIS","PERIAPSIS","OBJECT_TYPE","RCS_SIZE","COUNTRY_CODE","LAUNCH_DATE","SITE","DECAY_DATE","FILE","GP_ID","TLE_LINE0","TLE_LINE1","TLE_LINE2"
"2.0","GENERATED VIA SPACE-TRACK.ORG API","2022-01-07T18:50:20","18 SPCS","CARTOSAT 3","2019-081A","EARTH","TEME","UTC","SGP4","2022-01-07T10:57:31.714848","15.19299220","0.00145040","97.4214","72.1106","63.6917","307.0428","0","U","44804","999","11719","0.00005413700000","0.00001077","0.0000000000000","6886.094","94.781","517.947","497.972","PAYLOAD","LARGE","IND","2019-11-27","SRI",null,"3266507","193392457","0 CARTOSAT 3","1 44804U 19081A   22007.45661707  .00001077  00000-0  54137-4 0  9995","2 44804  97.4214  72.1106 0014504  63.6917 307.0428 15.19299220117195"
"2.0","GENERATED VIA SPACE-TRACK.ORG API","2022-01-07T22:16:12","18 SPCS","CARTOSAT 3","2019-081A","EARTH","TEME","UTC","SGP4","2022-01-07T19:22:42.179232","15.19299106","0.00144950","97.4215","72.4557","62.2179","66.0651","0","U","44804","999","11724","0.00004815600000","0.00000950","0.0000000000000","6886.095","94.781","517.941","497.978","PAYLOAD","LARGE","IND","2019-11-27","SRI",null,"3266522","193397210","0 CARTOSAT 3","1 44804U 19081A   22007.80743263  .00000950  00000-0  48156-4 0  9995","2 44804  97.4215  72.4557 0014495  62.2179  66.0651 15.19299106117242"
"2.0","GENERATED VIA SPACE-TRACK.ORG API","2022-01-08T03:40:13","18 SPCS","CARTOSAT 3","2019-081A","EARTH","TEME","UTC","SGP4","2022-01-07T19:22:42.179232","15.19299106","0.00144950","97.4215","72.4557","62.2179","66.0651","0","U","44804","999","11724","0.00004815600000","0.00000950","0.0000000000000","6886.095","94.781","517.941","497.978","PAYLOAD","LARGE","IND","2019-11-27","SRI",null,"3266804","193423202","0 CARTOSAT 3","1 44804U 19081A   22007.80743263  .00000950  00000-0  48156-4 0  9995","2 44804  97.4215  72.4557 0014495  62.2179  66.0651 15.19299106117242"
"2.0","GENERATED VIA SPACE-TRACK.ORG API","2022-01-08T06:16:11","18 SPCS","CARTOSAT 3","2019-081A","EARTH","TEME","UTC","SGP4","2022-01-08T04:37:33.296736","15.19299145","0.00144580","97.4216","72.8342","60.9854","13.4145","0","U","44804","999","11730","0.00004332500000","0.00000848","0.0000000000000","6886.095","94.781","517.915","498.004","PAYLOAD","LARGE","IND","2019-11-27","SRI",null,"3266814","193428534","0 CARTOSAT 3","1 44804U 19081A   22008.19274649  .00000848  00000-0  43325-4 0  9994","2 44804  97.4216  72.8342 0014458  60.9854  13.4145 15.19299145117307"
"2.0","GENERATED VIA SPACE-TRACK.ORG API","2022-01-08T14:16:11","18 SPCS","CARTOSAT 3","2019-081A","EARTH","TEME","UTC","SGP4","2022-01-08T12:41:22.292736","15.19299445","0.00144600","97.4211","73.1644","59.9242","50.9572","0","U","44804","999","11735","0.00004105700000","0.00000800","0.0000000000000","6886.094","94.781","517.916","498.001","PAYLOAD","LARGE","IND","2019-11-27","SRI",null,"3267076","193433960","0 CARTOSAT 3","1 44804U 19081A   22008.52873024  .00000800  00000-0  41057-4 0  9991","2 44804  97.4211  73.1644 0014460  59.9242  50.9572 15.19299445117351"
"2.0","GENERATED VIA SPACE-TRACK.ORG API","2022-01-08T20:35:46","18 SPCS","CARTOSAT 3","2019-081A","EARTH","TEME","UTC","SGP4","2022-01-08T12:41:22.292736","15.19299445","0.00144600","97.4211","73.1644","59.9242","50.9572","0","U","44804","999","11735","0.00004105700000","0.00000800","0.0000000000000","6886.094","94.781","517.916","498.001","PAYLOAD","LARGE","IND","2019-11-27","SRI",null,"3267276","193459271","0 CARTOSAT 3","1 44804U 19081A   22008.52873024  .00000800  00000-0  41057-4 0  9991","2 44804  97.4211  73.1644 0014460  59.9242  50.9572 15.19299445117351"
"2.0","GENERATED VIA SPACE-TRACK.ORG API","2022-01-08T22:36:12","18 SPCS","CARTOSAT 3","2019-081A","EARTH","TEME","UTC","SGP4","2022-01-08T20:27:02.786112","15.19299396","0.00145200","97.4213","73.4824","58.8721","19.6266","0","U","44804","999","11740","0.00003690800000","0.00000713","0.0000000000000","6886.094","94.781","517.957","497.960","PAYLOAD","LARGE","IND","2019-11-27","SRI",null,"3267347","193465238","0 CARTOSAT 3","1 44804U 19081A   22008.85211558  .00000713  00000-0  36908-4 0  9997","2 44804  97.4213  73.4824 0014520  58.8721  19.6266 15.19299396117406"
"2.0","GENERATED VIA SPACE-TRACK.ORG API","2022-01-09T04:29:08","18 SPCS","CARTOSAT 3","2019-081A","EARTH","TEME","UTC","SGP4","2022-01-08T20:27:02.786112","15.19299396","0.00145200","97.4213","73.4824","58.8721","19.6266","0","U","44804","999","11740","0.00003690800000","0.00000713","0.0000000000000","6886.094","94.781","517.957","497.960","PAYLOAD","LARGE","IND","2019-11-27","SRI",null,"3267514","193489616","0 CARTOSAT 3","1 44804U 19081A   22008.85211558  .00000713  00000-0  36908-4 0  9997","2 44804  97.4213  73.4824 0014520  58.8721  19.6266 15.19299396117406"
"2.0","GENERATED VIA SPACE-TRACK.ORG API","2022-01-09T06:16:11","18 SPCS","CARTOSAT 3","2019-081A","EARTH","TEME","UTC","SGP4","2022-01-09T04:23:16.379808","15.19299696","0.00144830","97.4213","73.8075","57.9196","28.2519","0","U","44804","999","11745","0.00003495200000","0.00000671","0.0000000000000","6886.093","94.781","517.931","497.985","PAYLOAD","LARGE","IND","2019-11-27","SRI",null,"3267527","193494093","0 CARTOSAT 3","1 44804U 19081A   22009.18282847  .00000671  00000-0  34952-4 0  9993","2 44804  97.4213  73.8075 0014483  57.9196  28.2519 15.19299696117457"
"2.0","GENERATED VIA SPACE-TRACK.ORG API","2022-01-09T14:16:12","18 SPCS","CARTOSAT 3","2019-081A","EARTH","TEME","UTC","SGP4","2022-01-09T12:24:11.060352","15.19300561","0.00144870","97.4211","74.1356","56.6781","54.9513","0","U","44804","999","11750","0.00003687500000","0.00000712","0.0000000000000","6886.090","94.780","517.931","497.979","PAYLOAD","LARGE","IND","2019-11-27","SRI",null,"3267810","193500271","0 CARTOSAT 3","1 44804U 19081A   22009.51679468  .00000712  00000-0  36875-4 0  9991","2 44804  97.4211  74.1356 0014487  56.6781  54.9513 15.19300561117501"
"2.0","GENERATED VIA SPACE-TRACK.ORG API","2022-01-09T17:57:46","18 SPCS","CARTOSAT 3","2019-081A","EARTH","TEME","UTC","SGP4","2022-01-09T12:24:11.060352","15.19300561","0.00144870","97.4211","74.1356","56.6781","54.9513","0","U","44804","999","11750","0.00003687500000","0.00000712","0.0000000000000","6886.090","94.780","517.931","497.979","PAYLOAD","LARGE","IND","2019-11-27","SRI",null,"3268062","193526002","0 CARTOSAT 3","1 44804U 19081A   22009.51679468  .00000712  00000-0  36875-4 0  9991","2 44804  97.4211  74.1356 0014487  56.6781  54.9513 15.19300561117501"
"2.0","GENERATED VIA SPACE-TRACK.ORG API","2022-01-09T22:16:12","18 SPCS","CARTOSAT 3","2019-081A","EARTH","TEME","UTC","SGP4","2022-01-09T18:47:58.373664","15.19300921","0.00145010","97.4211","74.3974","55.9056","72.5191","0","U","44804","999","11754","0.00003632600000","0.00000700","0.0000000000000","6886.089","94.780","517.940","497.969","PAYLOAD","LARGE","IND","2019-11-27","SRI",null,"3268086","193531576","0 CARTOSAT 3","1 44804U 19081A   22009.78331451  .00000700  00000-0  36326-4 0  9995","2 44804  97.4211  74.3974 0014501  55.9056  72.5191 15.19300921117545"
"2.0","GENERATED VIA SPACE-TRACK.ORG API","2022-01-10T04:12:17","18 SPCS","CARTOSAT 3","2019-081A","EARTH","TEME","UTC","SGP4","2022-01-09T22:09:21.685824","15.19300954","0.00144930","97.4211","74.5348","55.5804","117.2800","0","U","44804","999","11756","0.00003519600000","0.00000676","0.0000000000000","6886.089","94.780","517.934","497.974","PAYLOAD","LARGE","IND","2019-11-27","SRI",null,"3268323","193556586","0 CARTOSAT 3","1 44804U 19081A   22009.92316766  .00000676  00000-0  35196-4 0  9999","2 44804  97.4211  74.5348 0014493  55.5804 117.2800 15.19300954117561"
"2.0","GENERATED VIA SPACE-TRACK.ORG API","2022-01-10T06:16:12","18 SPCS","CARTOSAT 3","2019-081A","EARTH","TEME","UTC","SGP4","2022-01-10T05:25:18.096096","15.19301785","0.00145080","97.4212","74.8323","54.6930","332.9239","0","U","44804","999","11761","0.00003761400000","0.00000728","0.0000000000000","6886.087","94.780","517.942","497.961","PAYLOAD","LARGE","IND","2019-11-27","SRI",null,"3268331","193561648","0 CARTOSAT 3","1 44804U 19081A   22010.22590389  .00000728  00000-0  37614-4 0  9994","2 44804  97.4212  74.8323 0014508  54.6930 332.9239 15.19301785117616"
"2.0","GENERATED VIA SPACE-TRACK.ORG API","2022-01-10T14:16:11","18 SPCS","CARTOSAT 3","2019-081A","EARTH","TEME","UTC","SGP4","2022-01-10T13:41:41.144640","15.19302850","0.00145030","97.4210","75.1709","53.4502","58.3598","0","U","44804","999","11766","0.00004076400000","0.00000794","0.0000000000000","6886.083","94.780","517.935","497.961","PAYLOAD","LARGE","IND","2019-11-27","SRI",null,"3268586","193566900","0 CARTOSAT 3","1 44804U 19081A   22010.57061510  .00000794  00000-0  40764-4 0  9994","2 44804  97.4210  75.1709 0014503  53.4502  58.3598 15.19302850117669"
"2.0","GENERATED VIA SPACE-TRACK.ORG API","2022-01-10T18:45:40","18 SPCS","CARTOSAT 3","2019-081A","EARTH","TEME","UTC","SGP4","2022-01-10T13:41:41.144640","15.19302850","0.00145030","97.4210","75.1709","53.4502","58.3598","0","U","44804","999","11766","0.00004076400000","0.00000794","0.0000000000000","6886.083","94.780","517.935","497.961","PAYLOAD","LARGE","IND","2019-11-27","SRI",null,"3268856","193593426","0 CARTOSAT 3","1 44804U 19081A   22010.57061510  .00000794  00000-0  40764-4 0  9994","2 44804  97.4210  75.1709 0014503  53.4502  58.3598 15.19302850117669"
